[{"OBJECT_NAME":"STARLINK-35021","OBJECT_ID":"2025-184K","EPOCH":"2026-03-09T16:21:06.526656","MEAN_MOTION":15.05632974,"ECCENTRICITY":0.00010913,"INCLINATION":97.6031,"RA_OF_ASC_NODE":122.7142,"ARG_OF_PERICENTER":123.6007,"MEAN_ANOMALY":236.5324,"EPHEMERIS_TYPE":0,"CLASSIFICATION_TYPE":"U","NORAD_CAT_ID":65282,"ELEMENT_SET_NO":999,"REV_AT_EPOCH":3125,"BSTAR":0.00049768194,"MEAN_MOTION_DOT":7.124e-5,"MEAN_MOTION_DDOT":0},{"OBJECT_NAME":"OKEAN-3","OBJECT_ID":"1991-039A","EPOCH":"2026-03-09T19:29:17.530944","MEAN_MOTION":15.0480588,"ECCENTRICITY":0.00139411,"INCLINATION":82.519,"RA_OF_ASC_NODE":336.7249,"ARG_OF_PERICENTER":337.9296,"MEAN_ANOMALY":22.1329,"EPHEMERIS_TYPE":0,"CLASSIFICATION_TYPE":"U","NORAD_CAT_ID":21397,"ELEMENT_SET_NO":999,"REV_AT_EPOCH":86505,"BSTAR":0.00031884915,"MEAN_MOTION_DOT":4.536e-5,"MEAN_MOTION_DDOT":0}]
